{"type": "FeatureCollection", "features": [ {"type": "Feature", "properties": {"norad_id": 37477, "name": "FENGYUN 1C DEB", "group": "fengyun-1c-debris", "lat": -48.45798028192458, "lon": 12.060339035249905, "alt_km": 847.6880860739357, "timestamp": "2025-12-23T20:42:37.365645+00:00", "meta": {"OBJECT_NAME": "FENGYUN 1C DEB", "OBJECT_ID": "1999-025EJX", "EPOCH": "2025-12-16T18:06:36.022176", "MEAN_MOTION": 14.19731482, "ECCENTRICITY": 0.00371355, "INCLINATION": 98.6057, "RA_OF_ASC_NODE": 355.3103, "ARG_OF_PERICENTER": 94.8392, "MEAN_ANOMALY": 265.7026, "EPHEMERIS_TYPE": 0, "CLASSIFICATION_TYPE": "U", "NORAD_CAT_ID": 37477, "ELEMENT_SET_NO": 999, "REV_AT_EPOCH": 81971, "BSTAR": 0.00055952668, "MEAN_MOTION_DOT": 1.15e-05, "MEAN_MOTION_DDOT": 0}, "tle": {"line1": "1 37477U 99025EJX 25350.75458359  .00001150  00000+0  55953-3 0  9990", "line2": "2 37477  98.6057 355.3103 0037135  94.8392 265.7026 14.19731482819713"}}, "geometry": {"type": "Point", "coordinates": [12.060339035249905, -48.45798028192458]}}, {"type": "Feature", "properties": {"norad_id": 37478, "name": "FENGYUN 1C DEB", "group": "fengyun-1c-debris", "lat": 78.82518203038691, "lon": -80.29877071998695, "alt_km": 1601.6473101945467, "timestamp": "2025-12-23T20:42:37.365655+00:00", "meta": {"OBJECT_NAME": "FENGYUN 1C DEB", "OBJECT_ID": "1999-025EJY", "EPOCH": "2025-12-23T05:31:28.594848", "MEAN_MOTION": 13.03020761, "ECCENTRICITY": 0.05479168, "INCLINATION": 99.6522, "RA_OF_ASC_NODE": 338.6097, "ARG_OF_PERICENTER": 295.1195, "MEAN_ANOMALY": 59.4029, "EPHEMERIS_TYPE": 0, "CLASSIFICATION_TYPE": "U", "NORAD_CAT_ID": 37478, "ELEMENT_SET_NO": 999, "REV_AT_EPOCH": 56698, "BSTAR": 0.0032489988, "MEAN_MOTION_DOT": 2.046e-05, "MEAN_MOTION_DDOT": 0}, "tle": {"line1": "1 37478U 99025EJY 25357.23019207  .00002046  00000+0  32490-2 0  9991", "line2": "2 37478  99.6522 338.6097 0547916 295.1195  59.4029 13.03020761566980"}}, "geometry": {"type": "Point", "coordinates": [-80.29877071998695, 78.82518203038691]}}, {"type": "Feature", "properties": {"norad_id": 37589, "name": "FENGYUN 1C DEB", "group": "fengyun-1c-debris", "lat": -75.74816365728746, "lon": 41.535916376011926, "alt_km": 796.0057158440359, "timestamp": "2025-12-23T20:42:37.365668+00:00", "meta": {"OBJECT_NAME": "FENGYUN 1C DEB", "OBJECT_ID": "1999-025EKH", "EPOCH": "2025-12-22T12:47:20.483808", "MEAN_MOTION": 14.08264276, "ECCENTRICITY": 0.01172304, "INCLINATION": 99.0749, "RA_OF_ASC_NODE": 259.1917, "ARG_OF_PERICENTER": 236.7185, "MEAN_ANOMALY": 122.271, "EPHEMERIS_TYPE": 0, "CLASSIFICATION_TYPE": "U", "NORAD_CAT_ID": 37589, "ELEMENT_SET_NO": 999, "REV_AT_EPOCH": 82722, "BSTAR": 0.0028934456, "MEAN_MOTION_DOT": 5.223e-05, "MEAN_MOTION_DDOT": 0}, "tle": {"line1": "1 37589U 99025EKH 25356.53287597  .00005223  00000+0  28934-2 0  9993", "line2": "2 37589  99.0749 259.1917 0117230 236.7185 122.2710 14.08264276827228"}}, "geometry": {"type": "Point", "coordinates": [41.535916376011926, -75.74816365728746]}}, {"type": "Feature", "properties": {"norad_id": 37594, "name": "FENGYUN 1C DEB", "group": "fengyun-1c-debris", "lat": -31.19896596373285, "lon": -158.44732344422292, "alt_km": 806.3390427715367, "timestamp": "2025-12-23T20:42:37.365678+00:00", "meta": {"OBJECT_NAME": "FENGYUN 1C DEB", "OBJECT_ID": "1999-025EKN", "EPOCH": "2025-12-17T08:50:53.140704", "MEAN_MOTION": 14.11122506, "ECCENTRICITY": 0.00850392, "INCLINATION": 98.7342, "RA_OF_ASC_NODE": 20.5782, "ARG_OF_PERICENTER": 256.4735, "MEAN_ANOMALY": 102.6951, "EPHEMERIS_TYPE": 0, "CLASSIFICATION_TYPE": "U", "NORAD_CAT_ID": 37594, "ELEMENT_SET_NO": 999, "REV_AT_EPOCH": 77827, "BSTAR": 0.00026135684, "MEAN_MOTION_DOT": 4.43e-06, "MEAN_MOTION_DDOT": 0}, "tle": {"line1": "1 37594U 99025EKN 25351.36867061  .00000443  00000+0  26136-3 0  9997", "line2": "2 37594  98.7342  20.5782 0085039 256.4735 102.6951 14.11122506778272"}}, "geometry": {"type": "Point", "coordinates": [-158.44732344422292, -31.19896596373285]}}, {"type": "Feature", "properties": {"norad_id": 37595, "name": "FENGYUN 1C DEB", "group": "fengyun-1c-debris", "lat": 44.479849378757514, "lon": -160.6146198241053, "alt_km": 646.9377642007967, "timestamp": "2025-12-23T20:42:37.365690+00:00", "meta": {"OBJECT_NAME": "FENGYUN 1C DEB", "OBJECT_ID": "1999-025EKP", "EPOCH": "2025-12-19T20:17:37.284288", "MEAN_MOTION": 14.71383001, "ECCENTRICITY": 0.00286871, "INCLINATION": 99.0453, "RA_OF_ASC_NODE": 203.926, "ARG_OF_PERICENTER": 343.5826, "MEAN_ANOMALY": 33.1316, "EPHEMERIS_TYPE": 0, "CLASSIFICATION_TYPE": "U", "NORAD_CAT_ID": 37595, "ELEMENT_SET_NO": 999, "REV_AT_EPOCH": 62710, "BSTAR": 0.0022288021, "MEAN_MOTION_DOT": 0.00013847, "MEAN_MOTION_DDOT": 0}, "tle": {"line1": "1 37595U 99025EKP 25353.84557042  .00013847  00000+0  22288-2 0  9993", "line2": "2 37595  99.0453 203.9260 0028687 343.5826  33.1316 14.71383001627106"}}, "geometry": {"type": "Point", "coordinates": [-160.6146198241053, 44.479849378757514]}}, {"type": "Feature", "properties": {"norad_id": 37600, "name": "FENGYUN 1C DEB", "group": "fengyun-1c-debris", "lat": -30.23766703129081, "lon": 159.28203361008815, "alt_km": 786.8683590102964, "timestamp": "2025-12-23T20:42:37.365702+00:00", "meta": {"OBJECT_NAME": "FENGYUN 1C DEB", "OBJECT_ID": "1999-025EKU", "EPOCH": "2025-12-21T16:44:55.269888", "MEAN_MOTION": 13.82620131, "ECCENTRICITY": 0.03567199, "INCLINATION": 98.9342, "RA_OF_ASC_NODE": 151.9626, "ARG_OF_PERICENTER": 25.2746, "MEAN_ANOMALY": 336.5397, "EPHEMERIS_TYPE": 0, "CLASSIFICATION_TYPE": "U", "NORAD_CAT_ID": 37600, "ELEMENT_SET_NO": 999, "REV_AT_EPOCH": 88611, "BSTAR": 0.0021018419, "MEAN_MOTION_DOT": 3.679e-05, "MEAN_MOTION_DDOT": 0}, "tle": {"line1": "1 37600U 99025EKU 25355.69786192  .00003679  00000+0  21018-2 0  9997", "line2": "2 37600  98.9342 151.9626 0356719  25.2746 336.5397 13.82620131886117"}}, "geometry": {"type": "Point", "coordinates": [159.28203361008815, -30.23766703129081]}}, {"type": "Feature", "properties": {"norad_id": 37683, "name": "FENGYUN 1C DEB", "group": "fengyun-1c-debris", "lat": 72.20958461267357, "lon": -110.73105159320913, "alt_km": 722.2773103456375, "timestamp": "2025-12-23T20:42:37.365713+00:00", "meta": {"OBJECT_NAME": "FENGYUN 1C DEB", "OBJECT_ID": "1999-025EKY", "EPOCH": "2025-12-22T12:45:28.700352", "MEAN_MOTION": 13.31943553, "ECCENTRICITY": 0.05857029, "INCLINATION": 98.0031, "RA_OF_ASC_NODE": 274.2271, "ARG_OF_PERICENTER": 100.084, "MEAN_ANOMALY": 76.0427, "EPHEMERIS_TYPE": 0, "CLASSIFICATION_TYPE": "U", "NORAD_CAT_ID": 37683, "ELEMENT_SET_NO": 999, "REV_AT_EPOCH": 29370, "BSTAR": 0.0017018804, "MEAN_MOTION_DOT": 2.128e-05, "MEAN_MOTION_DDOT": 0}, "tle": {"line1": "1 37683U 99025EKY 25356.53158218  .00002128  00000+0  17019-2 0  9998", "line2": "2 37683  98.0031 274.2271 0585702 100.0840  76.0427 13.31943553293709"}}, "geometry": {"type": "Point", "coordinates": [-110.73105159320913, 72.20958461267357]}}, {"type": "Feature", "properties": {"norad_id": 37686, "name": "FENGYUN 1C DEB", "group": "fengyun-1c-debris", "lat": -50.294953549816746, "lon": -176.00831642140528, "alt_km": 1368.3069285656966, "timestamp": "2025-12-23T20:42:37.365723+00:00", "meta": {"OBJECT_NAME": "FENGYUN 1C DEB", "OBJECT_ID": "1999-025ELB", "EPOCH": "2025-12-15T20:02:19.291200", "MEAN_MOTION": 13.35366399, "ECCENTRICITY": 0.03959537, "INCLINATION": 99.0216, "RA_OF_ASC_NODE": 7.9106, "ARG_OF_PERICENTER": 34.5937, "MEAN_ANOMALY": 145.9696, "EPHEMERIS_TYPE": 0, "CLASSIFICATION_TYPE": "U", "NORAD_CAT_ID": 37686, "ELEMENT_SET_NO": 999, "REV_AT_EPOCH": 60668, "BSTAR": 0.00056833835, "MEAN_MOTION_DOT": 4.14e-06, "MEAN_MOTION_DDOT": 0}, "tle": {"line1": "1 37686U 99025ELB 25349.83494550  .00000414  00000+0  56834-3 0  9993", "line2": "2 37686  99.0216   7.9106 0395953  34.5937 145.9696 13.35366399606681"}}, "geometry": {"type": "Point", "coordinates": [-176.00831642140528, -50.294953549816746]}}, {"type": "Feature", "properties": {"norad_id": 37687, "name": "FENGYUN 1C DEB", "group": "fengyun-1c-debris", "lat": 54.09700742220361, "lon": -136.8747613223051, "alt_km": 1163.1711627796103, "timestamp": "2025-12-23T20:42:37.365733+00:00", "meta": {"OBJECT_NAME": "FENGYUN 1C DEB", "OBJECT_ID": "1999-025ELC", "EPOCH": "2025-12-20T21:38:24.171360", "MEAN_MOTION": 13.85399674, "ECCENTRICITY": 0.0333437, "INCLINATION": 98.2039, "RA_OF_ASC_NODE": 29.0329, "ARG_OF_PERICENTER": 336.128, "MEAN_ANOMALY": 146.3028, "EPHEMERIS_TYPE": 0, "CLASSIFICATION_TYPE": "U", "NORAD_CAT_ID": 37687, "ELEMENT_SET_NO": 999, "REV_AT_EPOCH": 83367, "BSTAR": 0.0022813, "MEAN_MOTION_DOT": 3.975e-05, "MEAN_MOTION_DDOT": 0}, "tle": {"line1": "1 37687U 99025ELC 25354.90166865  .00003975  00000+0  22813-2 0  9997", "line2": "2 37687  98.2039  29.0329 0333437 336.1280 146.3028 13.85399674833671"}}, "geometry": {"type": "Point", "coordinates": [-136.8747613223051, 54.09700742220361]}}, {"type": "Feature", "properties": {"norad_id": 37689, "name": "FENGYUN 1C DEB", "group": "fengyun-1c-debris", "lat": 14.257657421367313, "lon": -138.30699237687492, "alt_km": 719.2248291752439, "timestamp": "2025-12-23T20:42:37.365743+00:00", "meta": {"OBJECT_NAME": "FENGYUN 1C DEB", "OBJECT_ID": "1999-025ELE", "EPOCH": "2025-12-16T22:11:39.439392", "MEAN_MOTION": 14.48718217, "ECCENTRICITY": 0.00208957, "INCLINATION": 98.9198, "RA_OF_ASC_NODE": 32.0803, "ARG_OF_PERICENTER": 227.3129, "MEAN_ANOMALY": 132.6303, "EPHEMERIS_TYPE": 0, "CLASSIFICATION_TYPE": "U", "NORAD_CAT_ID": 37689, "ELEMENT_SET_NO": 999, "REV_AT_EPOCH": 57873, "BSTAR": 0.0018942734, "MEAN_MOTION_DOT": 7.118e-05, "MEAN_MOTION_DDOT": 0}, "tle": {"line1": "1 37689U 99025ELE 25350.92476203  .00007118  00000+0  18943-2 0  9999", "line2": "2 37689  98.9198  32.0803 0020895 227.3129 132.6303 14.48718217578736"}}, "geometry": {"type": "Point", "coordinates": [-138.30699237687492, 14.257657421367313]}}]}